{"epoch":1784902576,"count":18312,"objects":[{"id":"51653","name":"ONEWEB-0473","type":"PAYLOAD","l1":"1 51653U 22012AH  26205.05860100  .00000104  00000-0  26245-3 0  9999","l2":"2 51653  87.8813  28.9260 0001909  94.7339 265.4006 13.10371377214135"},{"id":"51654","name":"ONEWEB-0474","type":"PAYLOAD","l1":"1 51654U 22012AJ  26205.05012201  .00000485  00000-0  13540-2 0  9996","l2":"2 51654  87.8818  28.9166 0001727  99.8875 260.2447 13.10370946214127"},{"id":"51655","name":"ONEWEB-0475","type":"PAYLOAD","l1":"1 51655U 22012AK  26204.97545199 -.00000086  00000-0 -25585-3 0  9996","l2":"2 51655  87.9158 358.5550 0001715 112.0174 248.1140 13.17648947218532"},{"id":"54113","name":"ONEWEB-0490","type":"PAYLOAD","l1":"1 54113U 22138A   26205.28481199  .00000044  00000-0  78745-4 0  9990","l2":"2 54113  87.9189 297.5826 0002164 103.8952 256.2421 13.19724800181724"},{"id":"54114","name":"ONEWEB-0492","type":"PAYLOAD","l1":"1 54114U 22138B   26205.31007957 -.00000029  00000-0 -10600-3 0  9991","l2":"2 54114  87.9181 297.5765 0002302 100.7094 259.4298 13.19723933181730"},{"id":"54115","name":"ONEWEB-0495","type":"PAYLOAD","l1":"1 54115U 22138C   26205.28796415  .00000019  00000-0  16092-4 0  9991","l2":"2 54115  87.9183 297.5836 0002450 113.2110 246.9281 13.19726685181712"},{"id":"54116","name":"ONEWEB-0497","type":"PAYLOAD","l1":"1 54116U 22138D   26205.30060140  .00000000  00000-0 -32332-4 0  9990","l2":"2 54116  87.9188 297.5753 0002079 102.3096 257.8270 13.19723656181708"},{"id":"54117","name":"ONEWEB-0499","type":"PAYLOAD","l1":"1 54117U 22138E   26205.28402626  .00000054  00000-0  10172-3 0  9992","l2":"2 54117  87.9183 297.5853 0002074 107.0055 253.1305 13.19724556181716"},{"id":"54118","name":"ONEWEB-0500","type":"PAYLOAD","l1":"1 54118U 22138F   26205.28639335  .00000026  00000-0  33412-4 0  9994","l2":"2 54118  87.9188 297.5815 0002099  97.7430 262.3941 13.19726242181722"},{"id":"54119","name":"ONEWEB-0501","type":"PAYLOAD","l1":"1 54119U 22138G   26205.31640641 -.00000043  00000-0 -13920-3 0  9993","l2":"2 54119  87.9191 297.5757 0002260 109.3131 250.8246 13.19726387181708"},{"id":"54120","name":"ONEWEB-0502","type":"PAYLOAD","l1":"1 54120U 22138H   26205.30217783  .00000033  00000-0  50759-4 0  9990","l2":"2 54120  87.9196 297.5677 0002028 107.0311 253.1044 13.19723981181724"},{"id":"54121","name":"ONEWEB-0503","type":"PAYLOAD","l1":"1 54121U 22138J   26205.29112135  .00000140  00000-0  31838-3 0  9999","l2":"2 54121  87.9191 297.5761 0001749 100.7421 259.3909 13.19726868181719"},{"id":"54122","name":"ONEWEB-0504","type":"PAYLOAD","l1":"1 54122U 22138K   26205.27848550  .00000047  00000-0  85298-4 0  9991","l2":"2 54122  87.9193 297.5835 0002020 106.8901 253.2453 13.19727196181720"},{"id":"54123","name":"ONEWEB-0505","type":"PAYLOAD","l1":"1 54123U 22138L   26205.27532897  .00000057  00000-0  11012-3 0  9999","l2":"2 54123  87.9184 297.5832 0002230 111.0254 249.1118 13.19724491181705"},{"id":"54124","name":"ONEWEB-0506","type":"PAYLOAD","l1":"1 54124U 22138M   26205.32589005 -.00000033  00000-0 -11495-3 0  9990","l2":"2 54124  87.9191 297.5721 0002191 108.6986 251.4385 13.19726271181701"},{"id":"54125","name":"ONEWEB-0507","type":"PAYLOAD","l1":"1 54125U 22138N   26205.27058544 -.00000121  00000-0 -33346-3 0  9991","l2":"2 54125  87.9183 297.5920 0002195 104.9026 255.2350 13.19725494181746"},{"id":"54126","name":"ONEWEB-0508","type":"PAYLOAD","l1":"1 54126U 22138P   26205.26743511  .00000000  00000-0 -33325-4 0  9999","l2":"2 54126  87.9184 297.5919 0002379 107.2409 252.8984 13.19726720181728"},{"id":"54127","name":"ONEWEB-0509","type":"PAYLOAD","l1":"1 54127U 22138Q   26205.24216513 -.00000017  00000-0 -74470-4 0  9990","l2":"2 54127  87.9197 297.5901 0002090 102.2597 257.8770 13.19724651181692"},{"id":"54128","name":"ONEWEB-0510","type":"PAYLOAD","l1":"1 54128U 22138R   26205.17709407  .00000106  00000-0  22829-3 0  9999","l2":"2 54128  87.9178 267.0641 0001856  83.9587 276.1758 13.20765891184166"},{"id":"54129","name":"ONEWEB-0511","type":"PAYLOAD","l1":"1 54129U 22138S   26205.31482083 -.00000071  00000-0 -21071-3 0  9995","l2":"2 54129  87.9190 297.5770 0001817 105.7286 254.4047 13.19723785181732"},{"id":"54130","name":"ONEWEB-0512","type":"PAYLOAD","l1":"1 54130U 22138T   26205.30691706  .00000040  00000-0  67083-4 0  9998","l2":"2 54130  87.9181 297.5810 0002056 110.0858 250.0497 13.19724196181704"},{"id":"54131","name":"ONEWEB-0513","type":"PAYLOAD","l1":"1 54131U 22138U   26205.29726180  .00000053  00000-0  98995-4 0  9992","l2":"2 54131  87.9188 297.5226 0001994 125.6855 234.4464 13.20269691181618"},{"id":"54132","name":"ONEWEB-0514","type":"PAYLOAD","l1":"1 54132U 22138V   26205.24690047 -.00000023  00000-0 -90307-4 0  9998","l2":"2 54132  87.9189 297.5901 0001947  96.8358 263.2996 13.19725111181718"},{"id":"54133","name":"ONEWEB-0515","type":"PAYLOAD","l1":"1 54133U 22138W   26205.16362142  .00000051  00000-0  92717-4 0  9998","l2":"2 54133  87.9188 267.0641 0002551  79.6111 280.5309 13.20772360184183"},{"id":"54134","name":"ONEWEB-0516","type":"PAYLOAD","l1":"1 54134U 22138X   26205.29744697  .00000105  00000-0  23003-3 0  9993","l2":"2 54134  87.9182 297.5831 0002186 100.4660 259.6719 13.19724452181729"},{"id":"54135","name":"ONEWEB-0517","type":"PAYLOAD","l1":"1 54135U 22138Y   26205.27690757  .00000042  00000-0  73182-4 0  9993","l2":"2 54135  87.9185 297.5816 0001729 102.5358 257.5968 13.19726845181726"},{"id":"54136","name":"ONEWEB-0518","type":"PAYLOAD","l1":"1 54136U 22138Z   26205.29587239  .00000055  00000-0  10621-3 0  9998","l2":"2 54136  87.9183 297.5859 0002231  97.5321 262.6065 13.19724412181727"},{"id":"54137","name":"ONEWEB-0519","type":"PAYLOAD","l1":"1 54137U 22138AA  26205.24531958 -.00000011  00000-0 -60380-4 0  9993","l2":"2 54137  87.9191 297.5898 0001825 100.2541 259.8798 13.19724208181728"},{"id":"54138","name":"ONEWEB-0520","type":"PAYLOAD","l1":"1 54138U 22138AB  26205.28007444  .00000063  00000-0  12390-3 0  9998","l2":"2 54138  87.9188 297.5829 0002203 106.2804 253.8571 13.19725028181711"},{"id":"54139","name":"ONEWEB-0521","type":"PAYLOAD","l1":"1 54139U 22138AC  26205.31323070 -.00000038  00000-0 -12793-3 0  9990","l2":"2 54139  87.9195 297.5661 0001797  98.7217 261.4119 13.19723945181667"}]}