OBJECT_NAME,OBJECT_ID,EPOCH,MEAN_MOTION,ECCENTRICITY,INCLINATION,RA_OF_ASC_NODE,ARG_OF_PERICENTER,MEAN_ANOMALY,EPHEMERIS_TYPE,CLASSIFICATION_TYPE,NORAD_CAT_ID,ELEMENT_SET_NO,REV_AT_EPOCH,BSTAR,MEAN_MOTION_DOT,MEAN_MOTION_DDOT
ONEWEB-0473,2022-012AH,2026-07-24T01:24:23.126400,13.10371377,.00019089,87.8813,28.9260,94.7339,265.4006,0,U,51653,999,21413,.26244684E-3,.104E-5,0
ONEWEB-0474,2022-012AJ,2026-07-24T01:12:10.541664,13.10370946,.00017275,87.8818,28.9166,99.8875,260.2447,0,U,51654,999,21412,.13539971E-2,.485E-5,0
ONEWEB-0475,2022-012AK,2026-07-23T23:24:39.051936,13.17648947,.0001715,87.9158,358.5550,112.0174,248.1140,0,U,51655,999,21853,-.25585487E-3,-.86E-6,0
ONEWEB-0490,2022-138A,2026-07-24T06:50:07.755936,13.19724800,.00021637,87.9189,297.5826,103.8952,256.2421,0,U,54113,999,18172,.7874528E-4,.44E-6,0
ONEWEB-0492,2022-138B,2026-07-24T07:26:30.874848,13.19723933,.00023022,87.9181,297.5765,100.7094,259.4298,0,U,54114,999,18173,-.10600225E-3,-.29E-6,0
ONEWEB-0495,2022-138C,2026-07-24T06:54:40.102560,13.19726685,.00024498,87.9183,297.5836,113.2110,246.9281,0,U,54115,999,18171,.16091665E-4,.19E-6,0
ONEWEB-0497,2022-138D,2026-07-24T07:12:51.960960,13.19723656,.00020794,87.9188,297.5753,102.3096,257.8270,0,U,54116,999,18170,-.32332406E-4,0,0
ONEWEB-0499,2022-138E,2026-07-24T06:48:59.868864,13.19724556,.00020739,87.9183,297.5853,107.0055,253.1305,0,U,54117,999,18171,.10172388E-3,.54E-6,0
ONEWEB-0500,2022-138F,2026-07-24T06:52:24.385440,13.19726242,.00020986,87.9188,297.5815,97.7430,262.3941,0,U,54118,999,18172,.33412063E-4,.26E-6,0
ONEWEB-0501,2022-138G,2026-07-24T07:35:37.513824,13.19726387,.00022596,87.9191,297.5757,109.3131,250.8246,0,U,54119,999,18170,-.1391959E-3,-.43E-6,0
ONEWEB-0502,2022-138H,2026-07-24T07:15:08.164512,13.19723981,.00020277,87.9196,297.5677,107.0311,253.1044,0,U,54120,999,18172,.50759012E-4,.33E-6,0
ONEWEB-0503,2022-138J,2026-07-24T06:59:12.884640,13.19726868,.00017486,87.9191,297.5761,100.7421,259.3909,0,U,54121,999,18171,.31838442E-3,.14E-5,0
ONEWEB-0504,2022-138K,2026-07-24T06:41:01.147200,13.19727196,.00020196,87.9193,297.5835,106.8901,253.2453,0,U,54122,999,18172,.85297756E-4,.47E-6,0
ONEWEB-0505,2022-138L,2026-07-24T06:36:28.423008,13.19724491,.00022295,87.9184,297.5832,111.0254,249.1118,0,U,54123,999,18170,.11012475E-3,.57E-6,0
ONEWEB-0506,2022-138M,2026-07-24T07:49:16.900320,13.19726271,.00021908,87.9191,297.5721,108.6986,251.4385,0,U,54124,999,18170,-.11495048E-3,-.33E-6,0
ONEWEB-0507,2022-138N,2026-07-24T06:29:38.582016,13.19725494,.00021946,87.9183,297.5920,104.9026,255.2350,0,U,54125,999,18174,-.33346213E-3,-.121E-5,0
ONEWEB-0508,2022-138P,2026-07-24T06:25:06.393504,13.19726720,.00023793,87.9184,297.5919,107.2409,252.8984,0,U,54126,999,18172,-.33325266E-4,0,0
ONEWEB-0509,2022-138Q,2026-07-24T05:48:43.067232,13.19724651,.00020895,87.9197,297.5901,102.2597,257.8770,0,U,54127,999,18169,-.74469678E-4,-.17E-6,0
ONEWEB-0510,2022-138R,2026-07-24T04:15:00.927648,13.20765891,.00018563,87.9178,267.0641,83.9587,276.1758,0,U,54128,999,18416,.22829061E-3,.106E-5,0
ONEWEB-0511,2022-138S,2026-07-24T07:33:20.519712,13.19723785,.0001817,87.9190,297.5770,105.7286,254.4047,0,U,54129,999,18173,-.21071423E-3,-.71E-6,0
ONEWEB-0512,2022-138T,2026-07-24T07:21:57.633984,13.19724196,.00020557,87.9181,297.5810,110.0858,250.0497,0,U,54130,999,18170,.67082915E-4,.4E-6,0
ONEWEB-0513,2022-138U,2026-07-24T07:08:03.419520,13.20269691,.00019937,87.9188,297.5226,125.6855,234.4464,0,U,54131,999,18161,.9899486E-4,.53E-6,0
ONEWEB-0514,2022-138V,2026-07-24T05:55:32.200608,13.19725111,.00019465,87.9189,297.5901,96.8358,263.2996,0,U,54132,999,18171,-.90307109E-4,-.23E-6,0
ONEWEB-0515,2022-138W,2026-07-24T03:55:36.890688,13.20772360,.00025508,87.9188,267.0641,79.6111,280.5309,0,U,54133,999,18418,.92716739E-4,.51E-6,0
ONEWEB-0516,2022-138X,2026-07-24T07:08:19.418208,13.19724452,.00021856,87.9182,297.5831,100.4660,259.6719,0,U,54134,999,18172,.23002923E-3,.105E-5,0
ONEWEB-0517,2022-138Y,2026-07-24T06:38:44.814048,13.19726845,.00017288,87.9185,297.5816,102.5358,257.5968,0,U,54135,999,18172,.7318246E-4,.42E-6,0
ONEWEB-0518,2022-138Z,2026-07-24T07:06:03.374496,13.19724412,.00022313,87.9183,297.5859,97.5321,262.6065,0,U,54136,999,18172,.10621457E-3,.55E-6,0
ONEWEB-0519,2022-138AA,2026-07-24T05:53:15.611712,13.19724208,.00018254,87.9191,297.5898,100.2541,259.8798,0,U,54137,999,18172,-.6038027E-4,-.11E-6,0
ONEWEB-0520,2022-138AB,2026-07-24T06:43:18.431616,13.19725028,.0002203,87.9188,297.5829,106.2804,253.8571,0,U,54138,999,18171,.12389828E-3,.63E-6,0
ONEWEB-0521,2022-138AC,2026-07-24T07:31:03.132480,13.19723945,.00017967,87.9195,297.5661,98.7217,261.4119,0,U,54139,999,18166,-.12792881E-3,-.38E-6,0
